NORAD_CAT_ID,OBJECT_NAME,OBJECT_TYPE,EPOCH,MEAN_MOTION,ECCENTRICITY,INCLINATION,RA_OF_ASC_NODE,ARG_OF_PERICENTER,MEAN_ANOMALY,BSTAR,MEAN_MOTION_DOT,MEAN_MOTION_DDOT,TLE_LINE0,TLE_LINE1,TLE_LINE2,SEMIMAJOR_AXIS,PERIOD,APOGEE,PERIGEE,DECAYED
51105.0,STARLINK-3350,PAYLOAD,2023-06-26 00:11:36,15.08841,0.0001088,53.2185,42.9946,83.278,276.8336,6.8283e-05,7.99e-06,0.0,0 STARLINK-3350,1 51105U 22005B   23177.00806054  .00000799  00000-0  68283-4 0  9990,2 51105  53.2185  42.9946 0001088  83.2780 276.8336 15.08841000 80883,6917.877,95.437,540.495,538.99,0.0
51105.0,STARLINK-3350,PAYLOAD,2023-06-26 16:05:28,15.08834905,0.0001043,53.2183,40.0209,87.5257,272.5855,7.6063e-05,9.23e-06,0.0,0 STARLINK-3350,1 51105U 22005B   23177.67046644  .00000923  00000-0  76063-4 0  9998,2 51105  53.2183  40.0209 0001043  87.5257 272.5855 15.08834905 80985,6917.896,95.438,540.482,539.039,0.0
51105.0,STARLINK-3350,PAYLOAD,2023-06-26 20:51:37,15.08842086,0.0001096,53.2189,39.129,92.8635,267.2482,7.7944e-05,9.53e-06,0.0,0 STARLINK-3350,1 51105U 22005B   23177.86918249  .00000953  00000-0  77944-4 0  9990,2 51105  53.2189  39.1290 0001096  92.8635 267.2482 15.08842086 81018,6917.874,95.437,540.497,538.981,0.0
51105.0,STARLINK-3350,PAYLOAD,2023-06-27 23:53:10,15.08847375,0.0001077,53.2176,34.073,93.2168,266.8947,0.00022311,3.265e-05,0.0,0 STARLINK-3350,1 51105U 22005B   23178.99525883  .00003265  00000-0  22311-3 0  9999,2 51105  53.2176  34.0730 0001077  93.2168 266.8947 15.08847375 81187,6917.858,95.437,540.468,538.978,0.0
51105.0,STARLINK-3350,PAYLOAD,2023-06-28 17:22:25,15.08839598,0.0001736,53.2176,30.7979,118.0358,242.081,-0.0001063,-1.979e-05,0.0,0 STARLINK-3350,1 51105U 22005B   23179.72390343 -.00001979  00000-0 -10630-3 0  9995,2 51105  53.2176  30.7979 0001736 118.0358 242.0810 15.08839598 81299,6917.882,95.438,540.948,538.546,0.0
51105.0,STARLINK-3350,PAYLOAD,2023-06-29 18:48:35,15.08844166,0.0001136,53.2196,26.0394,103.7232,256.3887,6.9914e-05,8.25e-06,0.0,0 STARLINK-3350,1 51105U 22005B   23180.78374033  .00000825  00000-0  69914-4 0  9998,2 51105  53.2196  26.0394 0001136 103.7232 256.3887 15.08844166 81453,6917.868,95.437,540.519,538.947,0.0
51105.0,STARLINK-3350,PAYLOAD,2023-06-30 13:53:13,15.08836287,0.000113,53.2181,22.4792,74.7523,285.3594,2.8487e-05,1.66e-06,0.0,0 STARLINK-3350,1 51105U 22005B   23181.57862909  .00000166  00000-0  28487-4 0  9998,2 51105  53.2181  22.4792 0001130  74.7523 285.3594 15.08836287 81578,6917.892,95.438,540.538,538.975,0.0
51105.0,STARLINK-3350,PAYLOAD,2023-07-01 18:30:09,15.08841079,0.0001146,53.2191,17.1254,91.5564,268.556,4.107e-05,3.66e-06,0.0,0 STARLINK-3350,1 51105U 22005B   23182.77094645  .00000366  00000-0  41070-4 0  9990,2 51105  53.2191  17.1254 0001146  91.5564 268.5560 15.08841079 81753,6917.877,95.437,540.535,538.949,0.0
51105.0,STARLINK-3350,PAYLOAD,2023-07-02 19:56:20,15.088366,0.0001143,53.2192,12.368,92.2006,267.9117,9.067e-05,1.155e-05,0.0,0 STARLINK-3350,1 51105U 22005B   23183.83078971  .00001155  00000-0  90670-4 0  9999,2 51105  53.2192  12.3680 0001143  92.2006 267.9117 15.08836600 81913,6917.891,95.438,540.546,538.965,0.0
51105.0,STARLINK-3350,PAYLOAD,2023-07-03 22:57:53,15.08845154,0.0001083,53.2187,7.3124,92.7369,267.3747,6.0635e-05,6.77e-06,0.0,0 STARLINK-3350,1 51105U 22005B   23184.95686648  .00000677  00000-0  60635-4 0  9995,2 51105  53.2187   7.3124 0001083  92.7369 267.3747 15.08845154 82080,6917.865,95.437,540.479,538.98,0.0
51105.0,STARLINK-3350,PAYLOAD,2023-07-04 11:40:58,15.0883967,0.0001195,53.2184,4.9358,83.5439,276.5689,4.9413e-05,4.99e-06,0.0,0 STARLINK-3350,1 51105U 22005B   23185.48679137  .00000499  00000-0  49413-4 0  9992,2 51105  53.2184   4.9358 0001195  83.5439 276.5689 15.08839670 82161,6917.881,95.438,540.573,538.92,0.0
51105.0,STARLINK-3350,PAYLOAD,2023-07-05 17:53:18,15.08840748,0.0001132,53.2184,359.283,79.8596,280.2524,7.0808e-05,8.39e-06,0.0,0 STARLINK-3350,1 51105U 22005B   23186.74535032  .00000839  00000-0  70808-4 0  9997,2 51105  53.2184 359.2830 0001132  79.8596 280.2524 15.08840748 82354,6917.878,95.438,540.526,538.96,0.0
51105.0,STARLINK-3350,PAYLOAD,2023-07-06 20:54:50,15.0884929,9.63e-05,53.2182,354.2266,78.9445,281.1655,7.7532e-05,9.47e-06,0.0,0 STARLINK-3350,1 51105U 22005B   23187.87142350  .00000947  00000-0  77532-4 0  9990,2 51105  53.2182 354.2266 0000963  78.9445 281.1655 15.08849290 82529,6917.852,95.437,540.383,539.051,0.0
51105.0,STARLINK-3350,PAYLOAD,2023-07-07 17:34:52,15.0884039,9.48e-05,53.2187,350.3593,88.8733,271.2368,7.0772e-05,8.39e-06,0.0,0 STARLINK-3350,1 51105U 22005B   23188.73254842  .00000839  00000-0  70772-4 0  9995,2 51105  53.2187 350.3593 0000948  88.8733 271.2368 15.08840390 82654,6917.879,95.438,540.4,539.088,0.0
51105.0,STARLINK-3350,PAYLOAD,2023-07-09 02:57:58,15.08839805,9.62e-05,53.2183,344.1178,88.0613,272.049,2.4434e-05,1.01e-06,0.0,0 STARLINK-3350,1 51105U 22005B   23190.12359005  .00000101  00000-0  24434-4 0  9994,2 51105  53.2183 344.1178 0000962  88.0613 272.0490 15.08839805 82862,6917.881,95.438,540.411,539.08,0.0
51105.0,STARLINK-3350,PAYLOAD,2023-07-09 10:54:54,15.08827686,0.000116,53.2198,342.6323,103.5661,256.5461,-3.2795e-05,-8.09e-06,0.0,0 STARLINK-3350,1 51105U 22005B   23190.45480105 -.00000809  00000-0 -32795-4 0  9992,2 51105  53.2198 342.6323 0001160 103.5661 256.5461 15.08827686 82915,6917.918,95.438,540.586,538.981,0.0
51105.0,STARLINK-3350,PAYLOAD,2023-07-10 02:48:45,15.08834886,0.0001149,53.2193,339.657,93.1281,266.9843,-8.2015e-06,-4.18e-06,0.0,0 STARLINK-3350,1 51105U 22005B   23191.11719838 -.00000418  00000-0 -82015-5 0  9991,2 51105  53.2193 339.6570 0001149  93.1281 266.9843 15.08834886 83010,6917.896,95.438,540.556,538.966,0.0
51105.0,STARLINK-3350,PAYLOAD,2023-07-10 13:56:27,15.08841005,9.66e-05,53.2183,337.5752,93.3328,266.7774,5.2091e-05,5.41e-06,0.0,0 STARLINK-3350,1 51105U 22005B   23191.58087424  .00000541  00000-0  52091-4 0  9996,2 51105  53.2183 337.5752 0000966  93.3328 266.7774 15.08841005 83087,6917.877,95.437,540.411,539.074,0.0
51105.0,STARLINK-3350,PAYLOAD,2023-07-11 10:36:28,15.08832941,0.0001092,53.2189,333.7096,85.0239,275.0878,8.4026e-05,1.049e-05,0.0,0 STARLINK-3350,1 51105U 22005B   23192.44199932  .00001049  00000-0  84026-4 0  9997,2 51105  53.2189 333.7096 0001092  85.0239 275.0878 15.08832941 83214,6917.902,95.438,540.522,539.012,0.0
51105.0,STARLINK-3350,PAYLOAD,2023-07-12 16:48:48,15.08843501,0.0001149,53.2198,328.0604,86.1706,273.9417,1.5412e-05,-4.3e-07,0.0,0 STARLINK-3350,1 51105U 22005B   23193.70055658 -.00000043  00000-0  15412-4 0  9990,2 51105  53.2198 328.0604 0001149  86.1706 273.9417 15.08843501 83401,6917.87,95.437,540.53,538.94,0.0
51105.0,STARLINK-3350,PAYLOAD,2023-07-13 15:04:12,15.08835082,0.0001071,53.22,323.8997,60.6095,299.5004,6.5158e-05,7.49e-06,0.0,0 STARLINK-3350,1 51105U 22005B   23194.62792072  .00000749  00000-0  65158-4 0  9994,2 51105  53.2200 323.8997 0001071  60.6095 299.5004 15.08835082 83541,6917.895,95.438,540.501,539.02,0.0
51105.0,STARLINK-3350,PAYLOAD,2023-07-14 11:44:12,15.08842087,0.0001298,53.2185,320.0331,77.1355,282.9782,7.4534e-05,8.99e-06,0.0,0 STARLINK-3350,1 51105U 22005B   23195.48903656  .00000899  00000-0  74534-4 0  9995,2 51105  53.2185 320.0331 0001298  77.1355 282.9782 15.08842087 83673,6917.874,95.437,540.637,538.841,0.0
51105.0,STARLINK-3350,PAYLOAD,2023-07-15 11:35:00,15.08834588,0.0001137,53.2188,315.5724,81.4694,278.6427,3.3766e-05,2.5e-06,0.0,0 STARLINK-3350,1 51105U 22005B   23196.48264253  .00000250  00000-0  33766-4 0  9992,2 51105  53.2188 315.5724 0001137  81.4694 278.6427 15.08834588 83829,6917.897,95.438,540.548,538.975,0.0
51105.0,STARLINK-3350,PAYLOAD,2023-07-16 16:11:56,15.08838084,0.00011,53.2195,310.2198,94.825,265.2868,-1.9592e-05,-6e-06,0.0,0 STARLINK-3350,1 51105U 22005B   23197.67496450 -.00000600  00000-0 -19592-4 0  9992,2 51105  53.2195 310.2198 0001100  94.8250 265.2868 15.08838084 84007,6917.886,95.438,540.512,538.99,0.0
51105.0,STARLINK-3350,PAYLOAD,2023-07-17 14:27:19,15.08849678,9.92e-05,53.2185,306.0568,100.3651,259.7453,9.6315e-05,1.246e-05,0.0,0 STARLINK-3350,1 51105U 22005B   23198.60231480  .00001246  00000-0  96315-4 0  9999,2 51105  53.2185 306.0568 0000992 100.3651 259.7453 15.08849678 84140,6917.851,95.437,540.402,539.03,0.0
51105.0,STARLINK-3350,PAYLOAD,2023-07-18 11:07:21,15.08838932,0.0001021,53.2187,302.191,94.9965,265.1144,6.0769e-05,6.79e-06,0.0,0 STARLINK-3350,1 51105U 22005B   23199.46344359  .00000679  00000-0  60769-4 0  9997,2 51105  53.2187 302.1910 0001021  94.9965 265.1144 15.08838932 84273,6917.884,95.438,540.455,539.042,0.0
51105.0,STARLINK-3350,PAYLOAD,2023-07-18 19:04:16,15.08852879,0.0001002,53.218,300.704,97.6634,262.4472,0.00013037,1.788e-05,0.0,0 STARLINK-3350,1 51105U 22005B   23199.79463210  .00001788  00000-0  13037-3 0  9998,2 51105  53.2180 300.7040 0001002  97.6634 262.4472 15.08852879 84322,6917.841,95.437,540.399,539.013,0.0
51105.0,STARLINK-3350,PAYLOAD,2023-07-19 06:12:00,15.08821451,6.76e-05,53.2192,298.624,84.1465,275.9604,-0.00012905,-2.34e-05,0.0,0 STARLINK-3350,1 51105U 22005B   23200.25834134 -.00002340  00000-0 -12905-3 0  9999,2 51105  53.2192 298.6240 0000676  84.1465 275.9604 15.08821451 84396,6917.937,95.439,540.27,539.334,0.0
51105.0,STARLINK-3350,PAYLOAD,2023-07-19 18:55:04,15.08841401,0.0001033,53.218,296.243,102.8943,257.2165,-2.2616e-05,-6.48e-06,0.0,0 STARLINK-3350,1 51105U 22005B   23200.78824764 -.00000648  00000-0 -22616-4 0  9995,2 51105  53.2180 296.2430 0001033 102.8943 257.2165 15.08841401 84476,6917.876,95.437,540.456,539.026,0.0
51105.0,STARLINK-3350,PAYLOAD,2023-07-20 15:35:04,15.08850499,0.0001088,53.2175,292.3768,101.6545,258.457,0.00013531,1.867e-05,0.0,0 STARLINK-3350,1 51105U 22005B   23201.64936117  .00001867  00000-0  13531-3 0  9994,2 51105  53.2175 292.3768 0001088 101.6545 258.4570 15.08850499 84601,6917.848,95.437,540.466,538.961,0.0
